{
  "type": "FeatureCollection",
  "features": [
    {
      "type": "Feature",
      "properties": {
        "norad_id": 55973,
        "name": "TIANMU-1 03",
        "group": "weather",
        "lat": 30.26964136998413,
        "lon": 136.3217418951413,
        "alt_km": 441.21636241862143,
        "timestamp": "2025-12-04T07:39:35.817323+00:00",
        "meta_object_name": "TIANMU-1 03",
        "meta_object_id": "2023-039A",
        "meta_epoch": "2025-12-03T23:43:59.530080",
        "meta_mean_motion": 15.40526436,
        "meta_eccentricity": 0.000457,
        "meta_inclination": 97.5102,
        "meta_ra_of_asc_node": 140.3986,
        "meta_arg_of_pericenter": 86.4276,
        "meta_mean_anomaly": 273.7493,
        "meta_ephemeris_type": 0,
        "meta_classification_type": "U",
        "meta_norad_cat_id": 55973,
        "meta_element_set_no": 999,
        "meta_rev_at_epoch": 15071,
        "meta_bstar": 0.00069336731,
        "meta_mean_motion_dot": 0.00028137,
        "meta_mean_motion_ddot": 0,
        "tle_line1": "1 55973U 23039A   25337.98888345  .00028137  00000+0  69337-3 0  9990",
        "tle_line2": "2 55973  97.5102 140.3986 0004570  86.4276 273.7493 15.40526436150710"
      },
      "geometry": {
        "type": "Point",
        "coordinates": [
          136.3217418951413,
          30.26964136998413
        ]
      }
    },
    {
      "type": "Feature",
      "properties": {
        "norad_id": 55974,
        "name": "TIANMU-1 04",
        "group": "weather",
        "lat": 44.80261080835759,
        "lon": -32.545995881502414,
        "alt_km": 437.6182120604053,
        "timestamp": "2025-12-04T07:39:35.817332+00:00",
        "meta_object_name": "TIANMU-1 04",
        "meta_object_id": "2023-039B",
        "meta_epoch": "2025-12-03T23:17:06.850752",
        "meta_mean_motion": 15.40856229,
        "meta_eccentricity": 0.00052326,
        "meta_inclination": 97.5035,
        "meta_ra_of_asc_node": 139.574,
        "meta_arg_of_pericenter": 82.8709,
        "meta_mean_anomaly": 277.3132,
        "meta_ephemeris_type": 0,
        "meta_classification_type": "U",
        "meta_norad_cat_id": 55974,
        "meta_element_set_no": 999,
        "meta_rev_at_epoch": 15071,
        "meta_bstar": 0.0006823798,
        "meta_mean_motion_dot": 0.00027995,
        "meta_mean_motion_ddot": 0,
        "tle_line1": "1 55974U 23039B   25337.97021818  .00027995  00000+0  68238-3 0  9994",
        "tle_line2": "2 55974  97.5035 139.5740 0005232  82.8709 277.3132 15.40856229150717"
      },
      "geometry": {
        "type": "Point",
        "coordinates": [
          -32.545995881502414,
          44.80261080835759
        ]
      }
    },
    {
      "type": "Feature",
      "properties": {
        "norad_id": 55975,
        "name": "TIANMU-1 05",
        "group": "weather",
        "lat": 1.9726725316001823,
        "lon": -39.31559008981164,
        "alt_km": 446.75375675570285,
        "timestamp": "2025-12-04T07:39:35.817343+00:00",
        "meta_object_name": "TIANMU-1 05",
        "meta_object_id": "2023-039C",
        "meta_epoch": "2025-12-03T23:05:44.919744",
        "meta_mean_motion": 15.40483205,
        "meta_eccentricity": 0.00043349,
        "meta_inclination": 97.508,
        "meta_ra_of_asc_node": 140.0578,
        "meta_arg_of_pericenter": 103.3303,
        "meta_mean_anomaly": 256.8427,
        "meta_ephemeris_type": 0,
        "meta_classification_type": "U",
        "meta_norad_cat_id": 55975,
        "meta_element_set_no": 999,
        "meta_rev_at_epoch": 15069,
        "meta_bstar": 0.00066307823,
        "meta_mean_motion_dot": 0.0002686,
        "meta_mean_motion_ddot": 0,
        "tle_line1": "1 55975U 23039C   25337.96232546  .00026860  00000+0  66308-3 0  9992",
        "tle_line2": "2 55975  97.5080 140.0578 0004334 103.3303 256.8427 15.40483205150691"
      },
      "geometry": {
        "type": "Point",
        "coordinates": [
          -39.31559008981164,
          1.9726725316001823
        ]
      }
    },
    {
      "type": "Feature",
      "properties": {
        "norad_id": 55976,
        "name": "TIANMU-1 06",
        "group": "weather",
        "lat": 58.18585732093555,
        "lon": -26.841139364619142,
        "alt_km": 434.86195245351337,
        "timestamp": "2025-12-04T07:39:35.817352+00:00",
        "meta_object_name": "TIANMU-1 06",
        "meta_object_id": "2023-039D",
        "meta_epoch": "2025-12-03T23:20:40.507584",
        "meta_mean_motion": 15.40909131,
        "meta_eccentricity": 0.00046871,
        "meta_inclination": 97.5092,
        "meta_ra_of_asc_node": 140.5263,
        "meta_arg_of_pericenter": 98.8538,
        "meta_mean_anomaly": 261.3239,
        "meta_ephemeris_type": 0,
        "meta_classification_type": "U",
        "meta_norad_cat_id": 55976,
        "meta_element_set_no": 999,
        "meta_rev_at_epoch": 15071,
        "meta_bstar": 0.00067690923,
        "meta_mean_motion_dot": 0.00027816,
        "meta_mean_motion_ddot": 0,
        "tle_line1": "1 55976U 23039D   25337.97269106  .00027816  00000+0  67691-3 0  9994",
        "tle_line2": "2 55976  97.5092 140.5263 0004687  98.8538 261.3239 15.40909131150716"
      },
      "geometry": {
        "type": "Point",
        "coordinates": [
          -26.841139364619142,
          58.18585732093555
        ]
      }
    },
    {
      "type": "Feature",
      "properties": {
        "norad_id": 56232,
        "name": "FENGYUN 3G",
        "group": "weather",
        "lat": 38.50301016323489,
        "lon": 48.96016336772844,
        "alt_km": 397.03555531774236,
        "timestamp": "2025-12-04T07:39:35.817361+00:00",
        "meta_object_name": "FENGYUN 3G",
        "meta_object_id": "2023-055A",
        "meta_epoch": "2025-12-03T23:24:01.752192",
        "meta_mean_motion": 15.52834641,
        "meta_eccentricity": 0.00092367,
        "meta_inclination": 49.9947,
        "meta_ra_of_asc_node": 272.6575,
        "meta_arg_of_pericenter": 106.4167,
        "meta_mean_anomaly": 253.7816,
        "meta_ephemeris_type": 0,
        "meta_classification_type": "U",
        "meta_norad_cat_id": 56232,
        "meta_element_set_no": 999,
        "meta_rev_at_epoch": 14966,
        "meta_bstar": 0.00080679572,
        "meta_mean_motion_dot": 0.0005097,
        "meta_mean_motion_ddot": 0,
        "tle_line1": "1 56232U 23055A   25337.97502028  .00050970  00000+0  80680-3 0  9991",
        "tle_line2": "2 56232  49.9947 272.6575 0009236 106.4167 253.7816 15.52834641149668"
      },
      "geometry": {
        "type": "Point",
        "coordinates": [
          48.96016336772844,
          38.50301016323489
        ]
      }
    },
    {
      "type": "Feature",
      "properties": {
        "norad_id": 57166,
        "name": "METEOR-M2 3",
        "group": "weather",
        "lat": -55.42746083160564,
        "lon": 44.74964643356685,
        "alt_km": 818.6596464510658,
        "timestamp": "2025-12-04T07:39:35.817372+00:00",
        "meta_object_name": "METEOR-M2 3",
        "meta_object_id": "2023-091A",
        "meta_epoch": "2025-12-03T23:29:33.453024",
        "meta_mean_motion": 14.2402447,
        "meta_eccentricity": 0.00043764,
        "meta_inclination": 98.639,
        "meta_ra_of_asc_node": 31.6707,
        "meta_arg_of_pericenter": 32.3922,
        "meta_mean_anomaly": 327.7525,
        "meta_ephemeris_type": 0,
        "meta_classification_type": "U",
        "meta_norad_cat_id": 57166,
        "meta_element_set_no": 999,
        "meta_rev_at_epoch": 12673,
        "meta_bstar": 4.9999351e-05,
        "meta_mean_motion_dot": 7.1e-07,
        "meta_mean_motion_ddot": 0,
        "tle_line1": "1 57166U 23091A   25337.97885941  .00000071  00000+0  49999-4 0  9992",
        "tle_line2": "2 57166  98.6390  31.6707 0004376  32.3922 327.7525 14.24024470126735"
      },
      "geometry": {
        "type": "Point",
        "coordinates": [
          44.74964643356685,
          -55.42746083160564
        ]
      }
    },
    {
      "type": "Feature",
      "properties": {
        "norad_id": 57399,
        "name": "TIANMU-1 07",
        "group": "weather",
        "lat": -44.61028417037583,
        "lon": -158.89817948148323,
        "alt_km": 490.9994303065905,
        "timestamp": "2025-12-04T07:39:35.817381+00:00",
        "meta_object_name": "TIANMU-1 07",
        "meta_object_id": "2023-101A",
        "meta_epoch": "2025-12-03T22:49:10.475616",
        "meta_mean_motion": 15.27868568,
        "meta_eccentricity": 0.00056062,
        "meta_inclination": 97.2893,
        "meta_ra_of_asc_node": 27.9959,
        "meta_arg_of_pericenter": 103.8137,
        "meta_mean_anomaly": 256.3727,
        "meta_ephemeris_type": 0,
        "meta_classification_type": "U",
        "meta_norad_cat_id": 57399,
        "meta_element_set_no": 999,
        "meta_rev_at_epoch": 13181,
        "meta_bstar": 0.00048334031,
        "meta_mean_motion_dot": 0.00013093,
        "meta_mean_motion_ddot": 0,
        "tle_line1": "1 57399U 23101A   25337.95081569  .00013093  00000+0  48334-3 0  9993",
        "tle_line2": "2 57399  97.2893  27.9959 0005606 103.8137 256.3727 15.27868568131816"
      },
      "geometry": {
        "type": "Point",
        "coordinates": [
          -158.89817948148323,
          -44.61028417037583
        ]
      }
    }
  ]
}